OBJECT_NAME,OBJECT_ID,EPOCH,MEAN_MOTION,ECCENTRICITY,INCLINATION,RA_OF_ASC_NODE,ARG_OF_PERICENTER,MEAN_ANOMALY,EPHEMERIS_TYPE,CLASSIFICATION_TYPE,NORAD_CAT_ID,ELEMENT_SET_NO,REV_AT_EPOCH,BSTAR,MEAN_MOTION_DOT,MEAN_MOTION_DDOT
SL-12 R/B(2),1985-042D,2026-07-12T13:43:07.134240,14.22010609,.0037236,71.1065,183.8844,290.0323,208.3338,0,U,15772,999,13214,-.201E-5,-.52E-6,0
SL-14 R/B,1985-069B,2026-07-12T16:20:16.501056,14.86534107,.0019898,82.5265,267.3911,135.1483,225.1346,0,U,15945,999,19140,.22568E-4,.225E-5,0
SL-16 R/B,1985-097B,2026-07-12T13:20:05.936064,14.16612177,.00055353,71.0009,237.6702,56.9973,49.6357,0,U,16182,999,10491,.7576693E-5,-.33E-6,0
SL-14 R/B,1986-006B,2026-07-12T19:47:47.142816,14.86967287,.0075289,82.5281,141.9877,216.8202,142.7833,0,U,16496,999,16780,.23284E-4,.246E-5,0
COSMOS 1743,1986-034A,2026-07-12T06:55:55.122816,15.69378338,.0005295,82.5282,301.9968,185.6738,174.4465,0,U,16719,999,19972,.31357E-3,.36827E-3,0
SL-14 R/B,1986-046B,2026-07-12T17:54:37.498176,14.85689472,.0023314,82.4837,322.0242,170.9979,189.1660,0,U,16792,999,14497,.25844E-4,.25E-5,0
SL-14 R/B,1986-055B,2026-07-12T14:30:09.958752,14.85739223,.0017311,82.5201,9.2325,279.6849,148.7272,0,U,16882,999,13791,.21898E-4,.215E-5,0
AJISAI (EGS),1986-061A,2026-07-12T20:18:58.088160,12.44516696,.0011091,50.0100,68.4937,245.8412,241.1555,0,U,16908,999,48358,.36916E-4,-.92E-6,0
SL-14 R/B,1987-024B,2026-07-12T11:09:27.686592,14.86230506,.00175894,82.5295,335.4899,203.0412,157.0018,0,U,17567,999,10666,.2598949E-4,.253E-5,0
COSMOS 1833,1987-027A,2026-07-12T19:18:54.451296,14.13065903,.002408,70.9212,63.0247,12.5406,347.6309,0,U,17589,999,2799,.84829E-4,.111E-5,0
SL-16 R/B,1987-027B,2026-07-12T18:25:17.769792,14.17173187,.0007143,71.0030,12.9219,283.8161,76.2168,0,U,17590,999,3306,-.60563E-5,-.6E-6,0
SL-14 R/B,1987-038B,2026-07-12T09:20:44.713824,14.85460355,.00207518,82.5010,179.3326,110.8174,249.5268,0,U,17912,999,9774,.24172538E-4,.234E-5,0
COSMOS 1844,1987-041A,2026-07-12T06:44:56.491296,14.14579576,.00315065,70.8996,131.3759,199.4239,160.5685,0,U,17973,999,2120,.10831195E-3,.161E-5,0
SL-14 R/B,1987-055B,2026-07-12T13:06:42.206112,14.85726050,.0019592,82.4973,231.3228,324.3332,35.6574,0,U,18153,999,8847,.19669E-4,.195E-5,0
COSMOS 1867,1987-060A,2026-07-12T16:51:19.018080,14.31518306,.0017087,65.0120,316.6013,282.0156,77.9013,0,U,18187,999,3783,.12209E-4,-.68E-6,0
SL-14 R/B,1988-001B,2026-07-12T19:40:10.001280,14.85625896,.0017981,82.5122,77.6582,179.5832,180.5402,0,U,18749,999,6060,.22633E-4,.221E-5,0
COSMOS 1933,1988-020A,2026-07-12T19:09:07.372800,15.18880377,.0005773,82.5139,127.0718,113.5589,246.6252,0,U,18958,999,6921,.84329E-4,.179E-4,0
SL-3 R/B,1988-032B,2026-07-12T20:03:44.396928,15.21021328,.0026285,97.5267,176.8556,153.6289,206.6291,0,U,19046,999,7112,.1126E-3,.2448E-4,0
SL-16 R/B,1988-039B,2026-07-12T08:18:38.720736,14.19631421,.00207539,71.0137,164.9586,154.0706,206.1464,0,U,19120,999,97607,-.66560248E-4,-.189E-5,0
COSMOS 1953,1988-050A,2026-07-12T14:07:06.506400,15.30314827,.00117,82.5062,32.4107,48.3576,311.8664,0,U,19210,999,5687,.15455E-3,.4573E-4,0
SL-8 R/B,1988-053B,2026-07-12T14:37:01.889760,14.38977367,.0019643,74.0460,242.1964,28.6362,132.6191,0,U,19257,999,99456,.4655E-4,.118E-5,0
COSMOS 1975,1988-093A,2026-07-12T11:21:26.407584,15.29641140,.00125547,82.5192,352.2587,90.8294,269.4385,0,U,19573,999,3847,.12777478E-3,.3711E-4,0
SL-14 R/B,1988-093B,2026-07-12T16:08:37.906080,14.85759107,.002023,82.5317,284.7199,348.8497,125.0593,0,U,19574,999,1957,.20324E-4,.201E-5,0
SL-16 R/B,1988-102B,2026-07-12T13:47:47.871168,14.16167252,.0014458,70.9981,248.7209,189.6824,170.4023,0,U,19650,999,94457,-.85082E-4,-.216E-5,0
INTERCOSMOS 24,1989-080A,2026-07-12T14:08:33.824832,12.59691122,.1187344,82.6047,23.1112,2.9940,357.7488,0,U,20261,999,68252,.58283E-4,.213E-5,0
SL-14 R/B,1989-080C,2026-07-12T18:17:51.156096,12.50578207,.1228615,82.5936,92.8755,258.8589,87.2254,0,U,20262,999,67578,.17723E-4,.61E-6,0
DELTA 1 R/B,1989-089B,2026-07-12T12:46:19.832736,14.50746826,.00706489,97.0634,21.0344,88.2077,272.7211,0,U,20323,999,91383,.4548376E-4,.15E-5,0
ARIANE 40 R/B,1990-005H,2026-07-12T18:07:35.321088,14.39940084,.0010105,98.2947,250.5746,181.2102,178.9064,0,U,20443,999,91080,.48598E-4,.111E-5,0
DELTA 2 R/B(1),1990-008B,2026-07-12T17:41:32.819424,15.73213337,.0060179,35.6002,64.1871,352.8305,7.1572,0,U,20453,999,94572,.50606E-3,.81689E-3,0
COSMOS 2058,1990-010A,2026-07-12T17:53:21.104160,15.12149209,.0007885,82.4672,284.1489,260.2643,99.7697,0,U,20465,999,96113,.89546E-4,.1573E-4,0
SL-14 R/B,1990-010B,2026-07-12T07:46:33.716640,14.83662061,.00182801,82.5034,150.3385,247.4929,112.4351,0,U,20466,999,94696,.2109183E-4,.198E-5,0
