SL-12 R/B(2)            
1 15772U 85042D   26193.57161035 -.00000052  00000+0 -20100-5 0  9996
2 15772  71.1065 183.8844 0037236 290.0323 208.3338 14.22010609132143
SL-14 R/B               
1 15945U 85069B   26193.68074654  .00000225  00000+0  22568-4 0  9998
2 15945  82.5265 267.3911 0019898 135.1483 225.1346 14.86534107191400
SL-16 R/B               
1 16182U 85097B   26193.55562426 -.00000033  00000+0  75767-5 0  9996
2 16182  71.0009 237.6702 0005535  56.9973  49.6357 14.16612177104916
SL-14 R/B               
1 16496U 86006B   26193.82485119  .00000246  00000+0  23284-4 0  9999
2 16496  82.5281 141.9877 0075289 216.8202 142.7833 14.86967287167801
COSMOS 1743             
1 16719U 86034A   26193.28883244  .00036827  00000+0  31357-3 0  9992
2 16719  82.5282 301.9968 0005295 185.6738 174.4465 15.69378338199720
SL-14 R/B               
1 16792U 86046B   26193.74626734  .00000250  00000+0  25844-4 0  9992
2 16792  82.4837 322.0242 0023314 170.9979 189.1660 14.85689472144979
SL-14 R/B               
1 16882U 86055B   26193.60428193  .00000215  00000+0  21898-4 0  9992
2 16882  82.5201   9.2325 0017311 279.6849 148.7272 14.85739223137910
AJISAI (EGS)            
1 16908U 86061A   26193.84650565 -.00000092  00000+0  36916-4 0  9995
2 16908  50.0100  68.4937 0011091 245.8412 241.1555 12.44516696483582
SL-14 R/B               
1 17567U 87024B   26193.46490378  .00000253  00000+0  25989-4 0  9995
2 17567  82.5295 335.4899 0017589 203.0412 157.0018 14.86230506106668
COSMOS 1833             
1 17589U 87027A   26193.80479689  .00000111  00000+0  84829-4 0  9993
2 17589  70.9212  63.0247 0024080  12.5406 347.6309 14.13065903 27998
SL-16 R/B               
1 17590U 87027B   26193.76756678 -.00000060  00000+0 -60563-5 0  9991
2 17590  71.0030  12.9219 0007143 283.8161  76.2168 14.17173187 33065
SL-14 R/B               
1 17912U 87038B   26193.38940641  .00000234  00000+0  24173-4 0  9991
2 17912  82.5010 179.3326 0020751 110.8174 249.5268 14.85460355 97740
COSMOS 1844             
1 17973U 87041A   26193.28120939  .00000161  00000+0  10831-3 0  9995
2 17973  70.8996 131.3759 0031506 199.4239 160.5685 14.14579576 21204
SL-14 R/B               
1 18153U 87055B   26193.54632183  .00000195  00000+0  19669-4 0  9995
2 18153  82.4973 231.3228 0019592 324.3332  35.6574 14.85726050 88475
COSMOS 1867             
1 18187U 87060A   26193.70230345 -.00000068  00000+0  12209-4 0  9993
2 18187  65.0120 316.6013 0017087 282.0156  77.9013 14.31518306 37838
SL-14 R/B               
1 18749U 88001B   26193.81956020  .00000221  00000+0  22633-4 0  9992
2 18749  82.5122  77.6582 0017981 179.5832 180.5402 14.85625896 60603
COSMOS 1933             
1 18958U 88020A   26193.79800200  .00001790  00000+0  84329-4 0  9992
2 18958  82.5139 127.0718 0005773 113.5589 246.6252 15.18880377 69214
SL-3 R/B                
1 19046U 88032B   26193.83593052  .00002448  00000+0  11260-3 0  9997
2 19046  97.5267 176.8556 0026285 153.6289 206.6291 15.21021328 71125
SL-16 R/B               
1 19120U 88039B   26193.34628149 -.00000189  00000+0 -66560-4 0  9995
2 19120  71.0137 164.9586 0020753 154.0706 206.1464 14.19631421976077
COSMOS 1953             
1 19210U 88050A   26193.58826975  .00004573  00000+0  15455-3 0  9996
2 19210  82.5062  32.4107 0011700  48.3576 311.8664 15.30314827 56876
SL-8 R/B                
1 19257U 88053B   26193.60904965  .00000118  00000+0  46550-4 0  9991
2 19257  74.0460 242.1964 0019643  28.6362 132.6191 14.38977367994566
COSMOS 1975             
1 19573U 88093A   26193.47322231  .00003711  00000+0  12777-3 0  9996
2 19573  82.5192 352.2587 0012554  90.8294 269.4385 15.29641140 38477
SL-14 R/B               
1 19574U 88093B   26193.67266095  .00000201  00000+0  20324-4 0  9993
2 19574  82.5317 284.7199 0020230 348.8497 125.0593 14.85759107 19578
SL-16 R/B               
1 19650U 88102B   26193.57485962 -.00000216  00000+0 -85082-4 0  9994
2 19650  70.9981 248.7209 0014458 189.6824 170.4023 14.16167252944570
INTERCOSMOS 24          
1 20261U 89080A   26193.58928038  .00000213  00000+0  58283-4 0  9995
2 20261  82.6047  23.1112 1187344   2.9940 357.7488 12.59691122682525
SL-14 R/B               
1 20262U 89080C   26193.76239764  .00000061  00000+0  17723-4 0  9992
2 20262  82.5936  92.8755 1228615 258.8589  87.2254 12.50578207675781
DELTA 1 R/B             
1 20323U 89089B   26193.53217399  .00000150  00000+0  45484-4 0  9998
2 20323  97.0634  21.0344 0070648  88.2077 272.7211 14.50746826913831
ARIANE 40 R/B           
1 20443U 90005H   26193.75526992  .00000111  00000+0  48598-4 0  9993
2 20443  98.2947 250.5746 0010105 181.2102 178.9064 14.39940084910800
DELTA 2 R/B(1)          
1 20453U 90008B   26193.73718541  .00081689  00000+0  50606-3 0  9999
2 20453  35.6002  64.1871 0060179 352.8305   7.1572 15.73213337945722
COSMOS 2058             
1 20465U 90010A   26193.74538315  .00001573  00000+0  89546-4 0  9995
2 20465  82.4672 284.1489 0007885 260.2643  99.7697 15.12149209961136
SL-14 R/B               
1 20466U 90010B   26193.32400135  .00000198  00000+0  21092-4 0  9992
2 20466  82.5034 150.3385 0018280 247.4929 112.4351 14.83662061946961
